[{"OBJECT_NAME":"ONEWEB-0685","OBJECT_ID":"2022-166AP","EPOCH":"2026-03-09T22:18:59.931648","MEAN_MOTION":13.21812338,"ECCENTRICITY":0.00014155,"INCLINATION":87.9158,"RA_OF_ASC_NODE":263.7781,"ARG_OF_PERICENTER":94.288,"MEAN_ANOMALY":265.8416,"EPHEMERIS_TYPE":0,"CLASSIFICATION_TYPE":"U","NORAD_CAT_ID":54679,"ELEMENT_SET_NO":999,"REV_AT_EPOCH":15830,"BSTAR":-7.1879725e-5,"MEAN_MOTION_DOT":-1.7e-7,"MEAN_MOTION_DDOT":0},{"OBJECT_NAME":"FENGYUN 1C DEB","OBJECT_ID":"1999-025DAS","EPOCH":"2026-03-01T20:46:03.895968","MEAN_MOTION":13.70743022,"ECCENTRICITY":0.0368947,"INCLINATION":98.6883,"RA_OF_ASC_NODE":83.2127,"ARG_OF_PERICENTER":60.2344,"MEAN_ANOMALY":303.4973,"EPHEMERIS_TYPE":0,"CLASSIFICATION_TYPE":"U","NORAD_CAT_ID":32430,"ELEMENT_SET_NO":999,"REV_AT_EPOCH":92287,"BSTAR":0.003533,"MEAN_MOTION_DOT":5.057e-5,"MEAN_MOTION_DDOT":0}]
